H1 CPF 01  gfz 2021 01 07 01  5071 terrasarx 
H2 0702601  6201 31698    2021 01 07 00 59 42 2021 01 12 00 00 42   120 1 1  0 0 0
H9
10 0 59222  82782.000000  0   -1473925.130   6391152.676  -2116185.483
10 0 59222  82902.000000  0   -1224988.105   6105006.530  -2955726.411
10 0 59222  83022.000000  0    -960679.643   5707966.077  -3743387.434
10 0 59222  83142.000000  0    -687503.493   5206842.109  -4465411.448
10 0 59222  83262.000000  0    -411973.074   4610358.129  -5109221.764
10 0 59222  83382.000000  0    -140465.010   3928987.692  -5663635.077
10 0 59222  83502.000000  0     120920.911   3174760.758  -6119047.863
10 0 59222  83622.000000  0     366491.756   2361043.263  -6467591.956
10 0 59222  83742.000000  0     591078.680   1502297.029  -6703258.412
10 0 59222  83862.000000  0     790140.577    613823.724  -6821991.517
10 0 59222  83982.000000  0     959851.764   -288504.345  -6821750.991
10 0 59222  84102.000000  0    1097172.675  -1188522.595  -6702542.720
10 0 59222  84222.000000  0    1199902.587  -2070056.202  -6466416.893
10 0 59222  84342.000000  0    1266714.415  -2917202.477  -6117437.148
10 0 59222  84462.000000  0    1297171.269  -3714613.245  -5661620.251
10 0 59222  84582.000000  0    1291722.713  -4447772.960  -5106842.163
10 0 59222  84702.000000  0    1251682.856  -5103264.036  -4462712.110
10 0 59222  84822.000000  0    1179189.367  -5669018.029  -3740417.980
10 0 59222  84942.000000  0    1077143.327  -6134547.259  -2952540.750
10 0 59222  85062.000000  0     949132.089  -6491150.272  -2112841.605
10 0 59222  85182.000000  0     799336.435  -6732087.221  -1236024.194
10 0 59222  85302.000000  0     632423.069  -6852719.112   -337475.290
10 0 59222  85422.000000  0     453425.552  -6850606.154    567010.126
10 0 59222  85542.000000  0     267616.708  -6725563.559   1461513.281
10 0 59222  85662.000000  0      80375.603  -6479672.714   2330280.746
10 0 59222  85782.000000  0    -102947.451  -6117245.797   3158012.072
10 0 59222  85902.000000  0    -277164.496  -5644743.166   3930137.530
10 0 59222  86022.000000  0    -437378.831  -5070649.358   4633077.829
10 0 59222  86142.000000  0    -579105.523  -4405311.523   5254485.047
10 0 59222  86262.000000  0    -698380.520  -3660743.130   5783458.602
10 0 59222  86382.000000  0    -791856.550  -2850397.050   6210734.081
10 0 59223    102.000000  0    -856883.355  -1988913.684   6528838.529
10 0 59223    222.000000  0    -891570.918  -1091852.993   6732213.619
10 0 59223    342.000000  0    -894835.296   -175411.839   6817308.295
10 0 59223    462.000000  0    -866426.214    743869.301   6782637.258
10 0 59223    582.000000  0    -806934.461   1649404.496   6628805.334
10 0 59223    702.000000  0    -717779.570   2524860.995   6358497.444
10 0 59223    822.000000  0    -601178.563   3354453.570   5976434.766
10 0 59223    942.000000  0    -460096.405   4123230.887   5489297.305
10 0 59223   1062.000000  0    -298178.475   4817348.314   4905612.653
10 0 59223   1182.000000  0    -119666.364   5424324.273   4235613.573
10 0 59223   1302.000000  0      70701.945   5933272.781   3491061.186
10 0 59223   1422.000000  0     267803.874   6335106.649   2685044.277
10 0 59223   1542.000000  0     466255.534   6622715.671   1831748.379
10 0 59223   1662.000000  0     660543.920   6791099.486    946199.216
10 0 59223   1782.000000  0     845163.021   6837459.856     43992.004
10 0 59223   1902.000000  0    1014751.575   6761249.462   -858991.371
10 0 59223   2022.000000  0    1164227.428   6564174.803  -1746870.637
10 0 59223   2142.000000  0    1288915.522   6250154.722  -2604053.766
10 0 59223   2262.000000  0    1384666.925   5825235.374  -3415516.838
10 0 59223   2382.000000  0    1447966.047   5297463.558  -4167070.786
10 0 59223   2502.000000  0    1476023.526   4676722.234  -4845609.388
10 0 59223   2622.000000  0    1466852.383   3974533.063  -5439333.058
10 0 59223   2742.000000  0    1419325.961   3203833.067  -5937945.994
10 0 59223   2862.000000  0    1333216.870   2378728.654  -6332825.172
10 0 59223   2982.000000  0    1209216.006   1514233.404  -6617157.128
10 0 59223   3102.000000  0    1048932.556    625996.109  -6786044.954
10 0 59223   3222.000000  0     854874.316   -269979.356  -6836584.364
10 0 59223   3342.000000  0     630408.742  -1157617.245  -6767907.439
10 0 59223   3462.000000  0     379705.416  -2021050.972  -6581194.259
10 0 59223   3582.000000  0     107661.505  -2844898.257  -6279655.460
10 0 59223   3702.000000  0    -180190.642  -3614531.195  -5868484.958
10 0 59223   3822.000000  0    -477791.274  -4316334.261  -5354778.611
10 0 59223   3942.000000  0    -778674.572  -4937946.430  -4747423.179
10 0 59223   4062.000000  0   -1076102.912  -5468484.730  -4056954.163
10 0 59223   4182.000000  0   -1363211.316  -5898743.784  -3295382.910
10 0 59223   4302.000000  0   -1633158.764  -6221366.430  -2475995.160
10 0 59223   4422.000000  0   -1879283.389  -6430981.940  -1613123.908
10 0 59223   4542.000000  0   -2095257.785  -6524307.862   -721898.825
10 0 59223   4662.000000  0   -2275240.426  -6500211.219    182023.024
10 0 59223   4782.000000  0   -2414019.564  -6359726.451   1082739.117
10 0 59223   4902.000000  0   -2507145.451  -6106029.537   1964389.796
10 0 59223   5022.000000  0   -2551047.340  -5744368.631   2811446.775
10 0 59223   5142.000000  0   -2543131.865  -5281952.820   3608994.920
10 0 59223   5262.000000  0   -2481860.320  -4727802.382   4343000.715
10 0 59223   5382.000000  0   -2366803.680  -4092565.379   5000562.116
10 0 59223   5502.000000  0   -2198674.648  -3388304.826   5570136.326
10 0 59223   5622.000000  0   -1979334.605  -2628260.253   6041739.989
10 0 59223   5742.000000  0   -1711775.839  -1826592.525   6407118.790
10 0 59223   5862.000000  0   -1400080.398   -998116.083   6659886.693
10 0 59223   5982.000000  0   -1049356.857   -158021.416   6795631.181
10 0 59223   6102.000000  0    -665656.709    678403.432   6811983.945
10 0 59223   6222.000000  0    -255870.093   1496050.016   6708660.518
10 0 59223   6342.000000  0     172397.945   2280262.147   6487465.122
10 0 59223   6462.000000  0     610968.238   3017098.408   6152260.723
10 0 59223   6582.000000  0    1051242.401   3693580.489   5708905.917
10 0 59223   6702.000000  0    1484369.875   4297925.035   5165158.291
10 0 59223   6822.000000  0    1901424.631   4819754.274   4530544.951
10 0 59223   6942.000000  0    2293588.528   5250281.292   3816200.341
10 0 59223   7062.000000  0    2652337.139   5582464.450   3034675.280
10 0 59223   7182.000000  0    2969624.520   5811133.325   2199718.510
10 0 59223   7302.000000  0    3238062.117   5933076.315   1326029.765
10 0 59223   7422.000000  0    3451085.853   5947086.985    428995.084
10 0 59223   7542.000000  0    3603108.425   5853971.555   -475591.424
10 0 59223   7662.000000  0    3689653.448   5656514.843  -1371814.298
10 0 59223   7782.000000  0    3707466.929   5359406.872  -2243924.514
10 0 59223   7902.000000  0    3654604.131   4969131.753  -3076623.546
10 0 59223   8022.000000  0    3530488.607   4493821.312  -3855336.648
10 0 59223   8142.000000  0    3335942.582   3943078.340  -4566468.408
10 0 59223   8262.000000  0    3073189.641   3327776.012  -5197637.194
10 0 59223   8382.000000  0    2745829.134   2659836.383  -5737884.898
10 0 59223   8502.000000  0    2358783.957   1951994.212  -6177857.772
10 0 59223   8622.000000  0    1918222.684   1217551.618  -6509957.355
10 0 59223   8742.000000  0    1431459.309    470128.739  -6728459.301
10 0 59223   8862.000000  0     906832.159   -276584.893  -6829602.886
10 0 59223   8982.000000  0     353561.379  -1009076.677  -6811649.218
10 0 59223   9102.000000  0    -218410.055  -1714249.439  -6674905.993
10 0 59223   9222.000000  0    -798589.832  -2379648.654  -6421723.092
10 0 59223   9342.000000  0   -1376124.313  -2993678.626  -6056457.909
10 0 59223   9462.000000  0   -1939996.650  -3545802.662  -5585407.492
10 0 59223   9582.000000  0   -2479232.580  -4026724.280  -5016711.195
10 0 59223   9702.000000  0   -2983112.551  -4428548.621  -4360222.416
10 0 59223   9822.000000  0   -3441385.210  -4744918.690  -3627347.831
10 0 59223   9942.000000  0   -3844477.013  -4971123.379  -2830857.831
10 0 59223  10062.000000  0   -4183694.748  -5104175.353  -1984669.829
10 0 59223  10182.000000  0   -4451415.577  -5142855.796  -1103607.017
10 0 59223  10302.000000  0   -4641259.384  -5087724.482   -203136.742
10 0 59223  10422.000000  0   -4748238.626  -4941094.350    700906.394
10 0 59223  10542.000000  0   -4768881.754  -4706970.285   1592607.377
10 0 59223  10662.000000  0   -4701325.778  -4390952.439   2456260.698
10 0 59223  10782.000000  0   -4545375.892  -4000107.477   3276655.560
10 0 59223  10902.000000  0   -4302531.359  -3542811.442   4039350.675
10 0 59223  11022.000000  0   -3975976.563  -3028568.000   4730933.751
10 0 59223  11142.000000  0   -3570537.146  -2467806.369   5339258.296
10 0 59223  11262.000000  0   -3092604.813  -1871666.385   5853654.353
10 0 59223  11382.000000  0   -2550032.043  -1251774.784   6265112.546
10 0 59223  11502.000000  0   -1951997.964   -620015.233   6566437.802
10 0 59223  11622.000000  0   -1308847.633     11702.099   6752368.583
10 0 59223  11742.000000  0    -631910.582    631663.833   6819661.197
10 0 59223  11862.000000  0      66698.496   1228569.309   6767143.107
10 0 59223  11982.000000  0     774296.038   1791736.185   6595732.393
10 0 59223  12102.000000  0    1477859.424   2311291.761   6308422.375
10 0 59223  12222.000000  0    2164265.621   2778345.855   5910232.102
10 0 59223  12342.000000  0    2820535.704   3185144.429   5408124.975
10 0 59223  12462.000000  0    3434082.783   3525201.989   4810893.639
10 0 59223  12582.000000  0    3992956.339   3793408.312   4129009.928
10 0 59223  12702.000000  0    4486078.103   3986108.435   3374447.942
10 0 59223  12822.000000  0    4903470.231   4101155.858   2560475.354
99
